FLOCK 4BE-27            
1 60513U 24149AX  26060.46081769  .00012041  00000+0  38752-3 0  9995
2 60513  97.3887 142.4011 0003156 346.1226  13.9928 15.32368171 85632
FLOCK 4BE-9             
1 60514U 24149AY  26060.16540187  .00018612  00000+0  51205-3 0  9995
2 60514  97.3854 143.6517 0001731 345.3300  14.7894 15.37229467 85700
FLOCK 4BE-6             
1 60516U 24149BA  26060.18377188  .00017694  00000+0  50196-3 0  9995
2 60516  97.3853 143.2072 0002500 334.3143  25.7976 15.36282391 85674
FLOCK 4BE-14            
1 60517U 24149BB  26060.18816614  .00018809  00000+0  51602-3 0  9990
2 60517  97.3766 143.2809 0003282 329.9919  30.1137 15.37311618 85715
FLOCK 4BE-1             
1 60518U 24149BC  26060.17674249  .00021912  00000+0  57691-3 0  9999
2 60518  97.3840 144.1885 0003242 325.4945  34.6090 15.38554450 85743
FLOCK 4BE-28            
1 60519U 24149BD  26060.21412677  .00025823  00000+0  63651-3 0  9998
2 60519  97.3804 144.6386 0003641 324.0827  36.0174 15.40538425 85793
FLOCK 4BE-35            
1 60558U 24149CU  26060.21160332  .00093933  00000+0  21925-2 0  9993
2 60558  97.3812 143.3492 0004128 285.2607  74.8184 15.41849226 85699
FLOCK 4BE-5             
1 60559U 24149CV  26060.45783226  .00024564  00000+0  68822-3 0  9995
2 60559  97.3902 143.6810 0002529 331.6043  28.5063 15.36604445 85711
FLOCK 4BE-12            
1 60560U 24149CW  26060.31425066  .00109866  00000+0  23292-2 0  9997
2 60560  97.3783 144.1465 0005435 289.4424  70.6237 15.44649531 85775
FLOCK 4BE-3             
1 60561U 24149CX  26060.20662398  .00021485  00000+0  57937-3 0  9991
2 60561  97.3762 143.3532 0003196 320.1081  39.9929 15.37818421 85722
FLOCK 4BE-19            
1 60563U 24149CZ  26060.16005822  .00024136  00000+0  60786-3 0  9993
2 60563  97.3802 144.3791 0003264 325.6697  34.4338 15.39897784 85776
PELICAN-2               
1 62631U 25009Y   26060.21563449  .00012485  00000+0  31097-3 0  9994
2 62631  97.3993 150.4160 0007274 227.6757 132.3873 15.40358359 62933
PELICAN-3               
1 65315U 25188A   26060.16662571  .00004062  00000+0  10187-3 0  9993
2 65315  97.2254 137.8125 0004067 187.5389 172.5797 15.40596263 28689
PELICAN-4               
1 65316U 25188B   26060.18225943  .00011057  00000+0  27346-3 0  9991
2 65316  97.2341 137.9100 0005604 114.7224 245.4607 15.40609723 28685
